[
    {
        "Altitude(m)": 707945.3336992792,
        "Argument of Periapsis(deg)": 0.011390121186627068,
        "Eccentricity": 0.0,
        "Inclination(deg)": 45.0,
        "Latitude(deg)": -19.481010559764925,
        "Longitude(deg)": 109.82649725854816,
        "Mean Anomaly(deg)": 207.89681664748082,
        "RAAN(deg)": 9.989248058541795,
        "Satellite Name": "Constellation 1 56",
        "Satellite Number": 56,
        "Semi-Major Axis(m)": 7083131.272910544,
        "Time(s)": 190
    },
    {
        "Altitude(m)": 707958.3371354723,
        "Argument of Periapsis(deg)": 0.011450069192872472,
        "Eccentricity": 0.0,
        "Inclination(deg)": 45.0,
        "Latitude(deg)": -19.521371750015074,
        "Longitude(deg)": 109.87053587873181,
        "Mean Anomaly(deg)": 207.95751778773072,
        "RAAN(deg)": 9.989191469376227,
        "Satellite Name": "Constellation 1 56",
        "Satellite Number": 56,
        "Semi-Major Axis(m)": 7083131.272910544,
        "Time(s)": 191
    },
    {
        "Altitude(m)": 707971.3492092069,
        "Argument of Periapsis(deg)": 0.01151001719911788,
        "Eccentricity": 0.0,
        "Inclination(deg)": 45.0,
        "Latitude(deg)": -19.561719844191337,
        "Longitude(deg)": 109.91459827904205,
        "Mean Anomaly(deg)": 208.0182189279806,
        "RAAN(deg)": 9.989134880210656,
        "Satellite Name": "Constellation 1 56",
        "Satellite Number": 56,
        "Semi-Major Axis(m)": 7083131.272910544,
        "Time(s)": 192
    },
    {
        "Altitude(m)": 707984.3698784693,
        "Argument of Periapsis(deg)": 0.011569965205363285,
        "Eccentricity": 0.0,
        "Inclination(deg)": 45.0,
        "Latitude(deg)": -19.602054807194918,
        "Longitude(deg)": 109.95868434886947,
        "Mean Anomaly(deg)": 208.07892006823053,
        "RAAN(deg)": 9.989078291045088,
        "Satellite Name": "Constellation 1 56",
        "Satellite Number": 56,
        "Semi-Major Axis(m)": 7083131.272910544,
        "Time(s)": 193
    },
    {
        "Altitude(m)": 707997.3991012118,
        "Argument of Periapsis(deg)": 0.01162991321160869,
        "Eccentricity": 0.0,
        "Inclination(deg)": 45.0,
        "Latitude(deg)": -19.642376603880653,
        "Longitude(deg)": 110.00279448192343,
        "Mean Anomaly(deg)": 208.13962120848038,
        "RAAN(deg)": 9.989021701879519,
        "Satellite Name": "Constellation 1 56",
        "Satellite Number": 56,
        "Semi-Major Axis(m)": 7083131.272910544,
        "Time(s)": 194
    },
    {
        "Altitude(m)": 708010.4368353287,
        "Argument of Periapsis(deg)": 0.011689861217854095,
        "Eccentricity": 0.0,
        "Inclination(deg)": 45.0,
        "Latitude(deg)": -19.682685199056603,
        "Longitude(deg)": 110.04692856765054,
        "Mean Anomaly(deg)": 208.20032234873028,
        "RAAN(deg)": 9.988965112713949,
        "Satellite Name": "Constellation 1 56",
        "Satellite Number": 56,
        "Semi-Major Axis(m)": 7083131.272910544,
        "Time(s)": 195
    },
    {
        "Altitude(m)": 708023.4830386717,
        "Argument of Periapsis(deg)": 0.0117498092240995,
        "Eccentricity": 0.0,
        "Inclination(deg)": 45.0,
        "Latitude(deg)": -19.722980557484018,
        "Longitude(deg)": 110.0910866636223,
        "Mean Anomaly(deg)": 208.26102348898021,
        "RAAN(deg)": 9.988908523548378,
        "Satellite Name": "Constellation 1 56",
        "Satellite Number": 56,
        "Semi-Major Axis(m)": 7083131.272910544,
        "Time(s)": 196
    },
    {
        "Altitude(m)": 708036.5376690462,
        "Argument of Periapsis(deg)": 0.011809757230344905,
        "Eccentricity": 0.0,
        "Inclination(deg)": 45.0,
        "Latitude(deg)": -19.763262643877443,
        "Longitude(deg)": 110.13526882743814,
        "Mean Anomaly(deg)": 208.32172462923012,
        "RAAN(deg)": 9.98885193438281,
        "Satellite Name": "Constellation 1 56",
        "Satellite Number": 56,
        "Semi-Major Axis(m)": 7083131.272910544,
        "Time(s)": 197
    },
    {
        "Altitude(m)": 708049.6006842072,
        "Argument of Periapsis(deg)": 0.011869705236590313,
        "Eccentricity": 0.0,
        "Inclination(deg)": 45.0,
        "Latitude(deg)": -19.803531422904307,
        "Longitude(deg)": 110.1794751167252,
        "Mean Anomaly(deg)": 208.38242576948,
        "RAAN(deg)": 9.988795345217241,
        "Satellite Name": "Constellation 1 56",
        "Satellite Number": 56,
        "Semi-Major Axis(m)": 7083131.272910544,
        "Time(s)": 198
    },
    {
        "Altitude(m)": 708062.6720418719,
        "Argument of Periapsis(deg)": 0.011929653242835719,
        "Eccentricity": 0.0,
        "Inclination(deg)": 45.0,
        "Latitude(deg)": -19.843786859184952,
        "Longitude(deg)": 110.22370558913832,
        "Mean Anomaly(deg)": 208.4431269097299,
        "RAAN(deg)": 9.98873875605167,
        "Satellite Name": "Constellation 1 56",
        "Satellite Number": 56,
        "Semi-Major Axis(m)": 7083131.272910544,
        "Time(s)": 199
    }
]